KUIPER-00167            
1 65780U 25217U   25306.18777042  .00022379  00000+0  63487-3 0  9998
2 65780  51.8681 260.6980 0005137 222.4746 137.5843 15.36128719  5808
KUIPER-00168            
1 65781U 25217V   25306.46945208  .00039507  00000+0  10454-2 0  9997
2 65781  51.8737 258.8557 0002191  90.2834 269.8404 15.37998795  5853
KUIPER-00169            
1 65782U 25217W   25306.09822000  .00031616  00000+0  86150-3 0  9991
2 65782  51.8715 260.8605 0002886 173.7076 186.3948 15.37197230  5797
KUIPER-00170            
1 65783U 25217X   25306.50002315 -.00007242  00000+0 -19120-3 0  9990
2 65783  51.8659 259.1638 0005320 220.3744  79.9447 15.36234105  3970
KUIPER-00171            
1 65784U 25217Y   25306.50002315  .01834659  00000+0  31994-1 0  9991
2 65784  51.8654 258.4863 0005998 230.8597  45.1971 15.47139874  4495
KUIPER-00172            
1 65785U 25217Z   25306.15285812  .00050541  00000+0  13494-2 0  9993
2 65785  51.8734 260.4818 0001860 112.7670 247.3513 15.37609385  5804
KUIPER-00173            
1 65786U 25217AA  25305.89833236  .00040750  00000+0  10986-2 0  9997
2 65786  51.8704 261.7731 0002344 160.3885 199.7192 15.37406590  5766
KUIPER-00174            
1 65787U 25217AB  25306.14750519  .00056158  00000+0  14887-2 0  9992
2 65787  51.8759 260.4456 0002792 123.3743 236.7511 15.37784032  5808
